TRITON-1                
1 39427U 13066M   26192.20121331  .00001584  00000+0  19375-3 0  9999
2 39427  97.8226 101.4598 0090238 155.0082 205.5541 14.81789207677641
GOMX-1                  
1 39430U 13066Q   26192.15398193  .00001000  00000+0  15616-3 0  9996
2 39430  97.6478  31.1045 0128697   1.2098 358.9396 14.69536877673431
CUBEBUG-2 (LO-74)       
1 39440U 13066AA  26191.30584118  .00001961  00000+0  18439-3 0  9999
2 39440  97.8906 140.3858 0056121 311.9936  47.6511 14.93948233680449
NEE-02 KRYSAOR          
1 39441U 13066AB  26191.29487828  .00001559  00000+0  17498-3 0  9995
2 39441  97.8892 130.3465 0065849 355.4507   4.6102 14.86726426679639
FUNCUBE-1 (AO-73)       
1 39444U 13066AE  26191.98474830  .00004079  00000+0  25254-3 0  9992
2 39444  97.8286 163.9335 0037927 121.2536 239.2417 15.09785992683251
UWE-3                   
1 39446U 13066AG  26191.34114674  .00002018  00000+0  17603-3 0  9991
2 39446  97.8693 147.5751 0047541 241.4844 118.1586 14.97180749681047
SMDC ONE 2.4            
1 39469U 13072H   26192.16932130  .00009158  00000+0  34252-3 0  9990
2 39469 120.4918  84.7118 0147703  44.2974 316.9814 15.18733560121475
COSMOS 2488 (RODNIK-S 7)
1 39483U 13076A   26192.18655537 -.00000016  00000+0 -18568-3 0  9993
2 39483  82.4845 153.7431 0020713  45.8265 314.4512 12.42906133568872
COSMOS 2489 (RODNIK-S 8)
1 39484U 13076B   26192.16226255  .00000001  00000+0 -63664-4 0  9994
2 39484  82.4881 155.1449 0022521  45.6235 314.6684 12.42879967568924
COSMOS 2490 (RODNIK-S 9)
1 39485U 13076C   26192.21468198  .00000015  00000+0  34290-4 0  9992
2 39485  82.4829 153.1692 0022867  60.3430 299.9923 12.42879015568867
KAZEOSAT 1              
1 39731U 14024A   26192.16772976 -.00000054  00000+0 -35792-5 0  9990
2 39731  98.3200 264.0174 0001265  83.0801 277.0533 14.42036085642018
COSMOS 2496 (RODNIK-S *)
1 39761U 14028A   26192.17216657  .00000003  00000+0 -46634-4 0  9996
2 39761  82.4453  93.7094 0021010  29.3774 330.8482 12.42879328550499
COSMOS 2497 (RODNIK-S *)
1 39762U 14028B   26192.14714170  .00000052  00000+0  30672-3 0  9994
2 39762  82.4501  95.4240 0021469  24.5566 335.6531 12.42895289550492
COSMOS 2498 (RODNIK-S *)
1 39763U 14028C   26192.20357865  .00000021  00000+0  79256-4 0  9994
2 39763  82.4461  93.8654 0022186  23.9621 336.2486 12.42980834550533
HODOYOSHI-4             
1 40011U 14033B   26192.17285177  .00000131  00000+0  19794-4 0  9993
2 40011  97.5461  15.8394 0022357 223.7729 136.1716 14.88180467652376
UNISAT-6                
1 40012U 14033C   26191.39549180  .00001239  00000+0  13755-3 0  9994
2 40012  97.7899 343.7035 0044568 353.7824   6.2834 14.88355319649618
DEIMOS-2                
1 40013U 14033D   26192.16445090  .00000273  00000+0  30814-4 0  9999
2 40013  97.5806  65.8083 0000978  83.6329 276.5002 14.93789624641309
BUGSAT-1 (TITA)         
1 40014U 14033E   26192.19837185  .00004900  00000+0  25743-3 0  9998
2 40014  98.0430 286.1555 0029060  98.9501 261.5021 15.15857672659471
SAUDISAT 4              
1 40016U 14033G   26192.19468495  .00000290  00000+0  44979-4 0  9995
2 40016  97.7611 337.5031 0044594 357.1555   2.9397 14.79573077649620
APRIZESAT 9             
1 40018U 14033J   26190.60588905  .00000477  00000+0  77298-4 0  9997
2 40018  97.9087 323.2598 0067246 127.5578 233.1765 14.74247790646869
BRITE-CA1 (TORONTO)     
1 40020U 14033L   26190.18755172  .00000733  00000+0  11766-3 0  9997
2 40020  97.9764 318.7133 0078005 205.5751 154.1590 14.72715027645456
DUCHIFAT-1              
1 40021U 14033M   26191.96521575  .00098109  00000+0  80479-3 0  9994
2 40021  98.0442 254.5658 0002090 250.6210 109.4824 15.70169676659475
